start=new Date('2022-09-29T00:00:00.000Z').valueOf();
sats=[{"OBJECT_ID":"2021-115AP","DECAY_DATE":null,"SITE":"AFETR","ARG_OF_PERICENTER":"48.3061","INCLINATION":"53.2171","OBJECT_TYPE":"PAYLOAD","PERIAPSIS":"538.351","RCS_SIZE":"LARGE","GP_ID":"213766046","NORAD_CAT_ID":"49761","EPOCH":"2022-09-28T19:00:10.018368","ECCENTRICITY":"0.00019240","MEAN_MOTION_DDOT":"0.0000000000000","FILE":"3586258","RA_OF_ASC_NODE":"26.0524","MEAN_MOTION_DOT":"0.00005750","MEAN_ANOMALY":"311.8095","TLE_LINE2":"2 49761  53.2171  26.0524 0001924  48.3061 311.8095 15.08860621 45772","PERIOD":"95.436","TLE_LINE1":"1 49761U 21115AP  22271.79178262  .00005750  00000-0  37888-3 0  9997","REF_FRAME":"TEME","LAUNCH_DATE":"2021-12-02","TIME_SYSTEM":"UTC","BSTAR":"0.00037888000000","REV_AT_EPOCH":"4577","CLASSIFICATION_TYPE":"U","MEAN_MOTION":"15.08860621","SEMIMAJOR_AXIS":"6917.817","CENTER_NAME":"EARTH","ELEMENT_SET_NO":"999","OBJECT_NAME":"STARLINK-3203","COUNTRY_CODE":"US","EPHEMERIS_TYPE":"0","APOAPSIS":"541.013","MEAN_ELEMENT_THEORY":"SGP4"},{"MEAN_ELEMENT_THEORY":"SGP4","EPHEMERIS_TYPE":"0","APOAPSIS":"540.995","COUNTRY_CODE":"US","ELEMENT_SET_NO":"999","OBJECT_NAME":"STARLINK-3195","CLASSIFICATION_TYPE":"U","MEAN_MOTION":"15.08847194","SEMIMAJOR_AXIS":"6917.858","CENTER_NAME":"EARTH","REV_AT_EPOCH":"4578","REF_FRAME":"TEME","LAUNCH_DATE":"2021-12-02","BSTAR":"0.00009826800000","TIME_SYSTEM":"UTC","TLE_LINE2":"2 49762  53.2179  25.9734 0001838  45.5831 314.5312 15.08847194 45783","PERIOD":"95.437","TLE_LINE1":"1 49762U 21115AQ  22271.81018086  .00001276  00000-0  98268-4 0  9997","FILE":"3586258","RA_OF_ASC_NODE":"25.9734","MEAN_MOTION_DOT":"0.00001276","MEAN_ANOMALY":"314.5312","ECCENTRICITY":"0.00018380","MEAN_MOTION_DDOT":"0.0000000000000","RCS_SIZE":"LARGE","PERIAPSIS":"538.452","GP_ID":"213767295","NORAD_CAT_ID":"49762","EPOCH":"2022-09-28T19:26:39.626304","OBJECT_TYPE":"PAYLOAD","SITE":"AFETR","ARG_OF_PERICENTER":"45.5831","INCLINATION":"53.2179","OBJECT_ID":"2021-115AQ","DECAY_DATE":null},{"EPOCH":"2022-09-28T17:35:23.119008","NORAD_CAT_ID":"49763","GP_ID":"213767019","RCS_SIZE":"LARGE","PERIAPSIS":"538.215","MEAN_MOTION_DDOT":"0.0000000000000","ECCENTRICITY":"0.00021670","MEAN_ANOMALY":"317.6897","MEAN_MOTION_DOT":"0.00005271","RA_OF_ASC_NODE":"26.3221","FILE":"3586258","DECAY_DATE":null,"OBJECT_ID":"2021-115AR","INCLINATION":"53.2176","ARG_OF_PERICENTER":"42.4263","SITE":"AFETR","OBJECT_TYPE":"PAYLOAD","OBJECT_NAME":"STARLINK-3198","ELEMENT_SET_NO":"999","COUNTRY_CODE":"US","APOAPSIS":"541.213","EPHEMERIS_TYPE":"0","MEAN_ELEMENT_THEORY":"SGP4","TLE_LINE1":"1 49763U 21115AR  22271.73290647  .00005271  00000-0  34894-3 0  9997","TLE_LINE2":"2 49763  53.2176  26.3221 0002167  42.4263 317.6897 15.08850176 45773","PERIOD":"95.437","BSTAR":"0.00034894000000","TIME_SYSTEM":"UTC","LAUNCH_DATE":"2021-12-02","REF_FRAME":"TEME","REV_AT_EPOCH":"4577","SEMIMAJOR_AXIS":"6917.849","CENTER_NAME":"EARTH","CLASSIFICATION_TYPE":"U","MEAN_MOTION":"15.08850176"},{"APOAPSIS":"541.182","EPHEMERIS_TYPE":"0","MEAN_ELEMENT_THEORY":"SGP4","ELEMENT_SET_NO":"999","OBJECT_NAME":"STARLINK-3206","COUNTRY_CODE":"US","REV_AT_EPOCH":"4684","CLASSIFICATION_TYPE":"U","MEAN_MOTION":"15.08850384","SEMIMAJOR_AXIS":"6917.849","CENTER_NAME":"EARTH","TLE_LINE2":"2 49764  53.2181  27.4276 0002122  41.1712 318.9440 15.08850384 46846","PERIOD":"95.437","TLE_LINE1":"1 49764U 21115AS  22271.48635620  .00001271  00000-0  97917-4 0  9996","BSTAR":"0.00009791700000","TIME_SYSTEM":"UTC","REF_FRAME":"TEME","LAUNCH_DATE":"2021-12-02","ECCENTRICITY":"0.00021220","MEAN_MOTION_DDOT":"0.0000000000000","MEAN_MOTION_DOT":"0.00001271","MEAN_ANOMALY":"318.9440","FILE":"3586215","RA_OF_ASC_NODE":"27.4276","NORAD_CAT_ID":"49764","EPOCH":"2022-09-28T11:40:21.175680","PERIAPSIS":"538.246","RCS_SIZE":"LARGE","GP_ID":"213743089","OBJECT_TYPE":"PAYLOAD","DECAY_DATE":null,"OBJECT_ID":"2021-115AS","ARG_OF_PERICENTER":"41.1712","INCLINATION":"53.2181","SITE":"AFETR"},{"NORAD_CAT_ID":"49765","EPOCH":"2022-09-28T19:21:20.659104","RCS_SIZE":"LARGE","PERIAPSIS":"538.414","GP_ID":"213766547","MEAN_MOTION_DDOT":"0.0000000000000","ECCENTRICITY":"0.00018570","MEAN_MOTION_DOT":"0.00002316","MEAN_ANOMALY":"312.0321","FILE":"3586258","RA_OF_ASC_NODE":"25.9881","DECAY_DATE":null,"OBJECT_ID":"2021-115AT","ARG_OF_PERICENTER":"48.0829","INCLINATION":"53.2188","SITE":"AFETR","OBJECT_TYPE":"PAYLOAD","ELEMENT_SET_NO":"999","OBJECT_NAME":"STARLINK-3227","COUNTRY_CODE":"US","APOAPSIS":"540.983","EPHEMERIS_TYPE":"0","MEAN_ELEMENT_THEORY":"SGP4","TLE_LINE2":"2 49765  53.2188  25.9881 0001857  48.0829 312.0321 15.08855377 45780","PERIOD":"95.437","TLE_LINE1":"1 49765U 21115AT  22271.80648911  .00002316  00000-0  16347-3 0  9998","BSTAR":"0.00016347000000","TIME_SYSTEM":"UTC","REF_FRAME":"TEME","LAUNCH_DATE":"2021-12-02","REV_AT_EPOCH":"4578","CLASSIFICATION_TYPE":"U","MEAN_MOTION":"15.08855377","SEMIMAJOR_AXIS":"6917.833","CENTER_NAME":"EARTH"},{"OBJECT_ID":"2021-115AU","DECAY_DATE":null,"SITE":"AFETR","INCLINATION":"53.2177","ARG_OF_PERICENTER":"72.2969","OBJECT_TYPE":"PAYLOAD","GP_ID":"213766795","PERIAPSIS":"538.798","RCS_SIZE":"LARGE","EPOCH":"2022-09-28T18:07:11.956800","NORAD_CAT_ID":"49766","MEAN_MOTION_DDOT":"0.0000000000000","ECCENTRICITY":"0.00013900","FILE":"3586258","RA_OF_ASC_NODE":"26.2160","MEAN_ANOMALY":"287.8175","MEAN_MOTION_DOT":"0.00000403","TLE_LINE1":"1 49766U 21115AU  22271.75499950  .00000403  00000-0  43423-4 0  9991","TLE_LINE2":"2 49766  53.2177  26.2160 0001390  72.2969 287.8175 15.08835209 45776","PERIOD":"95.438","LAUNCH_DATE":"2021-12-02","REF_FRAME":"TEME","BSTAR":"0.00004342300000","TIME_SYSTEM":"UTC","REV_AT_EPOCH":"4577","SEMIMAJOR_AXIS":"6917.895","CENTER_NAME":"EARTH","MEAN_MOTION":"15.08835209","CLASSIFICATION_TYPE":"U","OBJECT_NAME":"STARLINK-3190","ELEMENT_SET_NO":"999","COUNTRY_CODE":"US","EPHEMERIS_TYPE":"0","APOAPSIS":"540.722","MEAN_ELEMENT_THEORY":"SGP4"},{"ECCENTRICITY":"0.00016210","MEAN_MOTION_DDOT":"0.0000000000000","FILE":"3586258","RA_OF_ASC_NODE":"26.2567","MEAN_ANOMALY":"311.8556","MEAN_MOTION_DOT":"0.00003026","GP_ID":"213767520","RCS_SIZE":"LARGE","PERIAPSIS":"538.567","EPOCH":"2022-09-28T17:56:34.255680","NORAD_CAT_ID":"49767","OBJECT_TYPE":"PAYLOAD","OBJECT_ID":"2021-115AV","DECAY_DATE":null,"SITE":"AFETR","INCLINATION":"53.2188","ARG_OF_PERICENTER":"48.2575","EPHEMERIS_TYPE":"0","APOAPSIS":"540.809","MEAN_ELEMENT_THEORY":"SGP4","OBJECT_NAME":"STARLINK-3192","ELEMENT_SET_NO":"999","COUNTRY_CODE":"US","REV_AT_EPOCH":"4577","SEMIMAJOR_AXIS":"6917.823","CENTER_NAME":"EARTH","MEAN_MOTION":"15.08858758","CLASSIFICATION_TYPE":"U","TLE_LINE1":"1 49767U 21115AV  22271.74761870  .00003026  00000-0  20804-3 0  9995","PERIOD":"95.436","TLE_LINE2":"2 49767  53.2188  26.2567 0001621  48.2575 311.8556 15.08858758 45778","LAUNCH_DATE":"2021-12-02","REF_FRAME":"TEME","BSTAR":"0.00020804000000","TIME_SYSTEM":"UTC"},{"OBJECT_ID":"2021-115AW","DECAY_DATE":null,"SITE":"AFETR","INCLINATION":"53.2181","ARG_OF_PERICENTER":"48.7402","OBJECT_TYPE":"PAYLOAD","GP_ID":"213765797","PERIAPSIS":"538.506","RCS_SIZE":"LARGE","EPOCH":"2022-09-28T16:42:24.893280","NORAD_CAT_ID":"49768","MEAN_MOTION_DDOT":"0.0000000000000","ECCENTRICITY":"0.00017830","RA_OF_ASC_NODE":"26.4807","FILE":"3586258","MEAN_ANOMALY":"311.3743","MEAN_MOTION_DOT":"0.00001780","TLE_LINE1":"1 49768U 21115AW  22271.69612145  .00001780  00000-0  12989-3 0  9990","PERIOD":"95.437","TLE_LINE2":"2 49768  53.2181  26.4807 0001783  48.7402 311.3743 15.08841855 45766","LAUNCH_DATE":"2021-12-02","REF_FRAME":"TEME","BSTAR":"0.00012989000000","TIME_SYSTEM":"UTC","REV_AT_EPOCH":"4576","CENTER_NAME":"EARTH","SEMIMAJOR_AXIS":"6917.875","MEAN_MOTION":"15.08841855","CLASSIFICATION_TYPE":"U","OBJECT_NAME":"STARLINK-3196","ELEMENT_SET_NO":"999","COUNTRY_CODE":"US","EPHEMERIS_TYPE":"0","APOAPSIS":"540.973","MEAN_ELEMENT_THEORY":"SGP4"},{"REV_AT_EPOCH":"4577","MEAN_MOTION":"15.08859524","CLASSIFICATION_TYPE":"U","CENTER_NAME":"EARTH","SEMIMAJOR_AXIS":"6917.821","PERIOD":"95.436","TLE_LINE2":"2 49769  53.2188  26.1997 0001436  66.3177 293.7966 15.08859524 45774","TLE_LINE1":"1 49769U 21115AX  22271.75866110  .00003819  00000-0  25776-3 0  9994","TIME_SYSTEM":"UTC","BSTAR":"0.00025776000000","REF_FRAME":"TEME","LAUNCH_DATE":"2021-12-02","APOAPSIS":"540.679","EPHEMERIS_TYPE":"0","MEAN_ELEMENT_THEORY":"SGP4","ELEMENT_SET_NO":"999","OBJECT_NAME":"STARLINK-3208","COUNTRY_CODE":"US","OBJECT_TYPE":"PAYLOAD","DECAY_DATE":null,"OBJECT_ID":"2021-115AX","ARG_OF_PERICENTER":"66.3177","INCLINATION":"53.2188","SITE":"AFETR","ECCENTRICITY":"0.00014360","MEAN_MOTION_DDOT":"0.0000000000000","MEAN_MOTION_DOT":"0.00003819","MEAN_ANOMALY":"293.7966","RA_OF_ASC_NODE":"26.1997","FILE":"3586258","NORAD_CAT_ID":"49769","EPOCH":"2022-09-28T18:12:28.319040","PERIAPSIS":"538.692","RCS_SIZE":"LARGE","GP_ID":"213766047"},{"COUNTRY_CODE":"US","OBJECT_NAME":"STARLINK-3191","ELEMENT_SET_NO":"999","MEAN_ELEMENT_THEORY":"SGP4","APOAPSIS":"541.101","EPHEMERIS_TYPE":"0","BSTAR":"0.00004113700000","TIME_SYSTEM":"UTC","LAUNCH_DATE":"2021-12-02","REF_FRAME":"TEME","TLE_LINE1":"1 49770U 21115AY  22271.69980960  .00000366  00000-0  41137-4 0  9993","TLE_LINE2":"2 49770  53.2211  26.4667 0001926  49.6203 310.4957 15.08832412 46885","PERIOD":"95.438","SEMIMAJOR_AXIS":"6917.904","CENTER_NAME":"EARTH","MEAN_MOTION":"15.08832412","CLASSIFICATION_TYPE":"U","REV_AT_EPOCH":"4688","EPOCH":"2022-09-28T16:47:43.549440","NORAD_CAT_ID":"49770","GP_ID":"213767296","PERIAPSIS":"538.436","RCS_SIZE":"LARGE","MEAN_ANOMALY":"310.4957","MEAN_MOTION_DOT":"0.00000366","RA_OF_ASC_NODE":"26.4667","FILE":"3586258","MEAN_MOTION_DDOT":"0.0000000000000","ECCENTRICITY":"0.00019260","INCLINATION":"53.2211","ARG_OF_PERICENTER":"49.6203","SITE":"AFETR","DECAY_DATE":null,"OBJECT_ID":"2021-115AY","OBJECT_TYPE":"PAYLOAD"}];
